{
  "type": "FeatureCollection",
  "features": [
    {
      "type": "Feature",
      "properties": {
        "norad_id": 34875,
        "name": "COSMOS 2251 DEB",
        "group": "cosmos-2251-debris",
        "lat": 34.28746595672899,
        "lon": 154.39015229558908,
        "alt_km": 733.8949859880731,
        "timestamp": "2025-12-20T18:51:32.108567+00:00",
        "meta_object_name": "COSMOS 2251 DEB",
        "meta_object_id": "1993-036ACN",
        "meta_epoch": "2025-12-19T11:28:39.014112",
        "meta_mean_motion": 14.48947014,
        "meta_eccentricity": 0.0016196,
        "meta_inclination": 74.0433,
        "meta_ra_of_asc_node": 145.5897,
        "meta_arg_of_pericenter": 268.763,
        "meta_mean_anomaly": 149.3216,
        "meta_ephemeris_type": 0,
        "meta_classification_type": "U",
        "meta_norad_cat_id": 34875,
        "meta_element_set_no": 999,
        "meta_rev_at_epoch": 87853,
        "meta_bstar": 0.00033791,
        "meta_mean_motion_dot": 1.255e-05,
        "meta_mean_motion_ddot": 0,
        "tle_line1": "1 34875U 93036ACN 25353.47822933  .00001255  00000+0  33791-3 0  9992",
        "tle_line2": "2 34875  74.0433 145.5897 0016196 268.7630 149.3216 14.48947014878533"
      },
      "geometry": {
        "type": "Point",
        "coordinates": [
          154.39015229558908,
          34.28746595672899
        ]
      }
    },
    {
      "type": "Feature",
      "properties": {
        "norad_id": 34878,
        "name": "COSMOS 2251 DEB",
        "group": "cosmos-2251-debris",
        "lat": 12.260227483048643,
        "lon": 38.14176106708515,
        "alt_km": 769.5224623500162,
        "timestamp": "2025-12-20T18:51:32.108577+00:00",
        "meta_object_name": "COSMOS 2251 DEB",
        "meta_object_id": "1993-036ACR",
        "meta_epoch": "2025-12-20T02:51:54.266112",
        "meta_mean_motion": 13.44200085,
        "meta_eccentricity": 0.04356019,
        "meta_inclination": 73.965,
        "meta_ra_of_asc_node": 35.6157,
        "meta_arg_of_pericenter": 17.6827,
        "meta_mean_anomaly": 11.8411,
        "meta_ephemeris_type": 0,
        "meta_classification_type": "U",
        "meta_norad_cat_id": 34878,
        "meta_element_set_no": 999,
        "meta_rev_at_epoch": 81372,
        "meta_bstar": 0.00054186737,
        "meta_mean_motion_dot": 5.36e-06,
        "meta_mean_motion_ddot": 0,
        "tle_line1": "1 34878U 93036ACR 25354.11937808  .00000536  00000+0  54187-3 0  9998",
        "tle_line2": "2 34878  73.9650  35.6157 0435601  17.6827  11.8411 13.44200085813723"
      },
      "geometry": {
        "type": "Point",
        "coordinates": [
          38.14176106708515,
          12.260227483048643
        ]
      }
    },
    {
      "type": "Feature",
      "properties": {
        "norad_id": 34882,
        "name": "COSMOS 2251 DEB",
        "group": "cosmos-2251-debris",
        "lat": -13.77742009249669,
        "lon": -153.81465394488848,
        "alt_km": 634.4269672002147,
        "timestamp": "2025-12-20T18:51:32.108587+00:00",
        "meta_object_name": "COSMOS 2251 DEB",
        "meta_object_id": "1993-036ACV",
        "meta_epoch": "2025-12-20T00:51:13.406976",
        "meta_mean_motion": 14.61609371,
        "meta_eccentricity": 0.00831704,
        "meta_inclination": 74.0454,
        "meta_ra_of_asc_node": 211.6418,
        "meta_arg_of_pericenter": 336.8506,
        "meta_mean_anomaly": 22.892,
        "meta_ephemeris_type": 0,
        "meta_classification_type": "U",
        "meta_norad_cat_id": 34882,
        "meta_element_set_no": 999,
        "meta_rev_at_epoch": 88631,
        "meta_bstar": 9.3819034e-05,
        "meta_mean_motion_dot": 4.56e-06,
        "meta_mean_motion_ddot": 0,
        "tle_line1": "1 34882U 93036ACV 25354.03557184  .00000456  00000+0  93819-4 0  9996",
        "tle_line2": "2 34882  74.0454 211.6418 0083170 336.8506  22.8920 14.61609371886311"
      },
      "geometry": {
        "type": "Point",
        "coordinates": [
          -153.81465394488848,
          -13.77742009249669
        ]
      }
    },
    {
      "type": "Feature",
      "properties": {
        "norad_id": 34883,
        "name": "COSMOS 2251 DEB",
        "group": "cosmos-2251-debris",
        "lat": 69.51845264517209,
        "lon": 178.43574446599547,
        "alt_km": 754.3951298842812,
        "timestamp": "2025-12-20T18:51:32.108597+00:00",
        "meta_object_name": "COSMOS 2251 DEB",
        "meta_object_id": "1993-036ACW",
        "meta_epoch": "2025-12-18T13:27:07.209504",
        "meta_mean_motion": 14.51672805,
        "meta_eccentricity": 0.00951028,
        "meta_inclination": 74.2022,
        "meta_ra_of_asc_node": 51.868,
        "meta_arg_of_pericenter": 236.3156,
        "meta_mean_anomaly": 122.8912,
        "meta_ephemeris_type": 0,
        "meta_classification_type": "U",
        "meta_norad_cat_id": 34883,
        "meta_element_set_no": 999,
        "meta_rev_at_epoch": 86524,
        "meta_bstar": 0.0028915699,
        "meta_mean_motion_dot": 0.00012297,
        "meta_mean_motion_ddot": 0,
        "tle_line1": "1 34883U 93036ACW 25352.56050011  .00012297  00000+0  28916-2 0  9990",
        "tle_line2": "2 34883  74.2022  51.8680 0095102 236.3156 122.8912 14.51672805865245"
      },
      "geometry": {
        "type": "Point",
        "coordinates": [
          178.43574446599547,
          69.51845264517209
        ]
      }
    },
    {
      "type": "Feature",
      "properties": {
        "norad_id": 34884,
        "name": "COSMOS 2251 DEB",
        "group": "cosmos-2251-debris",
        "lat": 68.80339656874324,
        "lon": 88.26999528482096,
        "alt_km": 588.0578136034583,
        "timestamp": "2025-12-20T18:51:32.108607+00:00",
        "meta_object_name": "COSMOS 2251 DEB",
        "meta_object_id": "1993-036ACX",
        "meta_epoch": "2025-12-20T14:14:11.616000",
        "meta_mean_motion": 14.9038608,
        "meta_eccentricity": 0.00026989,
        "meta_inclination": 74.0173,
        "meta_ra_of_asc_node": 41.0042,
        "meta_arg_of_pericenter": 45.569,
        "meta_mean_anomaly": 77.4134,
        "meta_ephemeris_type": 0,
        "meta_classification_type": "U",
        "meta_norad_cat_id": 34884,
        "meta_element_set_no": 999,
        "meta_rev_at_epoch": 87922,
        "meta_bstar": 0.0013456712,
        "meta_mean_motion_dot": 0.00013093,
        "meta_mean_motion_ddot": 0,
        "tle_line1": "1 34884U 93036ACX 25354.59319000  .00013093  00000+0  13457-2 0  9991",
        "tle_line2": "2 34884  74.0173  41.0042 0002698  45.5690  77.4134 14.90386080879229"
      },
      "geometry": {
        "type": "Point",
        "coordinates": [
          88.26999528482096,
          68.80339656874324
        ]
      }
    },
    {
      "type": "Feature",
      "properties": {
        "norad_id": 34885,
        "name": "COSMOS 2251 DEB",
        "group": "cosmos-2251-debris",
        "lat": -70.56702994456491,
        "lon": 113.60911214070563,
        "alt_km": 718.117961129291,
        "timestamp": "2025-12-20T18:51:32.108617+00:00",
        "meta_object_name": "COSMOS 2251 DEB",
        "meta_object_id": "1993-036ACY",
        "meta_epoch": "2025-12-19T20:36:45.224064",
        "meta_mean_motion": 14.51536925,
        "meta_eccentricity": 0.00150862,
        "meta_inclination": 74.0297,
        "meta_ra_of_asc_node": 169.617,
        "meta_arg_of_pericenter": 254.9308,
        "meta_mean_anomaly": 224.4752,
        "meta_ephemeris_type": 0,
        "meta_classification_type": "U",
        "meta_norad_cat_id": 34885,
        "meta_element_set_no": 999,
        "meta_rev_at_epoch": 87582,
        "meta_bstar": 0.00048267206,
        "meta_mean_motion_dot": 1.906e-05,
        "meta_mean_motion_ddot": 0,
        "tle_line1": "1 34885U 93036ACY 25353.85885676  .00001906  00000+0  48267-3 0  9995",
        "tle_line2": "2 34885  74.0297 169.6170 0015086 254.9308 224.4752 14.51536925875827"
      },
      "geometry": {
        "type": "Point",
        "coordinates": [
          113.60911214070563,
          -70.56702994456491
        ]
      }
    },
    {
      "type": "Feature",
      "properties": {
        "norad_id": 34886,
        "name": "COSMOS 2251 DEB",
        "group": "cosmos-2251-debris",
        "lat": 20.62710611485247,
        "lon": 169.75735004487714,
        "alt_km": 429.5428583488774,
        "timestamp": "2025-12-20T18:51:32.108627+00:00",
        "meta_object_name": "COSMOS 2251 DEB",
        "meta_object_id": "1993-036ACZ",
        "meta_epoch": "2025-12-19T05:20:10.106016",
        "meta_mean_motion": 15.39455892,
        "meta_eccentricity": 0.0031395,
        "meta_inclination": 73.9504,
        "meta_ra_of_asc_node": 166.9286,
        "meta_arg_of_pericenter": 349.772,
        "meta_mean_anomaly": 10.2844,
        "meta_ephemeris_type": 0,
        "meta_classification_type": "U",
        "meta_norad_cat_id": 34886,
        "meta_element_set_no": 999,
        "meta_rev_at_epoch": 63098,
        "meta_bstar": 0.0012728,
        "meta_mean_motion_dot": 0.00051055,
        "meta_mean_motion_ddot": 0,
        "tle_line1": "1 34886U 93036ACZ 25353.22233919  .00051055  00000+0  12728-2 0  9996",
        "tle_line2": "2 34886  73.9504 166.9286 0031395 349.7720  10.2844 15.39455892630986"
      },
      "geometry": {
        "type": "Point",
        "coordinates": [
          169.75735004487714,
          20.62710611485247
        ]
      }
    }
  ]
}